COMMENT,ORIGINATOR,NORAD_CAT_ID,OBJECT_NAME,OBJECT_TYPE,CLASSIFICATION_TYPE,INTLDES,EPOCH,EPOCH_MICROSECONDS,MEAN_MOTION,ECCENTRICITY,INCLINATION,RA_OF_ASC_NODE,ARG_OF_PERICENTER,MEAN_ANOMALY,EPHEMERIS_TYPE,ELEMENT_SET_NO,REV_AT_EPOCH,BSTAR,MEAN_MOTION_DOT,MEAN_MOTION_DDOT,FILE,TLE_LINE0,TLE_LINE1,TLE_LINE2,OBJECT_ID,OBJECT_NUMBER,SEMIMAJOR_AXIS,PERIOD,APOGEE,PERIGEE,DECAYED
GENERATED VIA SPACETRACK.ORG API,18 SPCS,44336,ARIANE 5 DEB (SYLDA),DEBRIS,U,19034D,2023-03-24 07:58:38,166816,3.11786439,0.6646244,5.8116,117.6171,54.0118,350.9206,0,999,3555,0.025666,0.00124679,0,3869416,0 ARIANE 5 DEB (SYLDA),1 44336U 19034D   23083.33238619  .00124679  00000-0  25666-1 0  9993,2 44336   5.8116 117.6171 6646244  54.0118 350.9206  3.11786439 35553,2019-034D,44336,19792.335,461.855,26568.668,259.731,0
GENERATED VIA SPACETRACK.ORG API,18 SPCS,44336,ARIANE 5 DEB (SYLDA),DEBRIS,U,19034D,2023-03-24 07:58:38,166816,3.11786439,0.6646244,5.8116,117.6171,54.0118,350.9206,0,999,3557,0.025666,0.00124679,0,3869846,0 ARIANE 5 DEB (SYLDA),1 44336U 19034D   23083.33238619  .00124679  00000-0  25666-1 0  9993,2 44336   5.8116 117.6171 6646244  54.0118 350.9206  3.11786439 35575,2019-034D,44336,19792.335,461.855,26568.668,259.731,0
GENERATED VIA SPACETRACK.ORG API,18 SPCS,44336,ARIANE 5 DEB (SYLDA),DEBRIS,U,19034D,2023-03-24 23:22:00,670368,3.11869256,0.6645621,5.812,117.2183,54.7957,350.7446,0,999,3557,0.013032,0.00063228,0,3870217,0 ARIANE 5 DEB (SYLDA),1 44336U 19034D   23083.97361887  .00063228  00000-0  13032-1 0  9993,2 44336   5.8120 117.2183 6645621  54.7957 350.7446  3.11869256 35578,2019-034D,44336,19788.831,461.732,26561.602,259.789,0
GENERATED VIA SPACETRACK.ORG API,18 SPCS,44336,ARIANE 5 DEB (SYLDA),DEBRIS,U,19034D,2023-03-25 07:03:36,65952,3.11910696,0.6645284,5.8121,117.0202,55.1855,350.6558,0,999,3560,0.012894,0.00062472,0,3871104,0 ARIANE 5 DEB (SYLDA),1 44336U 19034D   23084.29416743  .00062472  00000-0  12894-1 0  9996,2 44336   5.8121 117.0202 6645284  55.1855 350.6558  3.11910696 35608,2019-034D,44336,19787.078,461.671,26558.018,259.868,0
GENERATED VIA SPACETRACK.ORG API,18 SPCS,44336,ARIANE 5 DEB (SYLDA),DEBRIS,U,19034D,2023-03-26 13:49:25,40928,3.12049965,0.6644123,5.8129,116.2298,56.7451,350.2949,0,999,3562,0.01104,0.00053145,0,3871779,0 ARIANE 5 DEB (SYLDA),1 44336U 19034D   23085.57598427  .00053145  00000-0  11040-1 0  9997,2 44336   5.8129 116.2298 6644123  56.7451 350.2949  3.12049965 35627,2019-034D,44336,19781.19,461.465,26545.921,260.189,0
GENERATED VIA SPACETRACK.ORG API,18 SPCS,44336,ARIANE 5 DEB (SYLDA),DEBRIS,U,19034D,2023-03-26 13:49:25,40928,3.12049965,0.6644123,5.8129,116.2298,56.7451,350.2949,0,999,3564,0.01104,0.00053145,0,3871964,0 ARIANE 5 DEB (SYLDA),1 44336U 19034D   23085.57598427  .00053145  00000-0  11040-1 0  9997,2 44336   5.8129 116.2298 6644123  56.7451 350.2949  3.12049965 35649,2019-034D,44336,19781.19,461.465,26545.921,260.189,0
GENERATED VIA SPACETRACK.ORG API,18 SPCS,44336,ARIANE 5 DEB (SYLDA),DEBRIS,U,19034D,2023-03-27 12:53:14,132832,3.12153042,0.6643332,5.8138,115.6396,57.9122,350.0205,0,999,3567,0.010517,0.00050497,0,3872569,0 ARIANE 5 DEB (SYLDA),1 44336U 19034D   23086.53696913  .00050497  00000-0  10517-1 0  9998,2 44336   5.8138 115.6396 6643332  57.9122 350.0205  3.12153042 35678,2019-034D,44336,19776.835,461.312,26537.108,260.292,0
GENERATED VIA SPACETRACK.ORG API,18 SPCS,44336,ARIANE 5 DEB (SYLDA),DEBRIS,U,19034D,2023-03-28 04:15:31,667904,3.12221904,0.6642798,5.8142,115.2457,58.6907,349.8361,0,999,3569,0.011211,0.00053737,0,3873565,0 ARIANE 5 DEB (SYLDA),1 44336U 19034D   23087.17744986  .00053737  00000-0  11211-1 0  9995,2 44336   5.8142 115.2457 6642798  58.6907 349.8361  3.12221904 35695,2019-034D,44336,19773.927,461.21,26531.212,260.372,0
GENERATED VIA SPACETRACK.ORG API,18 SPCS,44336,ARIANE 5 DEB (SYLDA),DEBRIS,U,19034D,2023-03-28 19:37:36,857280,3.1229405,0.6642269,5.8148,114.8515,59.47,349.6507,0,999,3569,0.012399,0.00059409,0,3874013,0 ARIANE 5 DEB (SYLDA),1 44336U 19034D   23087.81778770  .00059409  00000-0  12399-1 0  9994,2 44336   5.8148 114.8515 6642269  59.4700 349.6507  3.12294050 35696,2019-034D,44336,19770.882,461.104,26525.098,260.395,0
GENERATED VIA SPACETRACK.ORG API,18 SPCS,44336,ARIANE 5 DEB (SYLDA),DEBRIS,U,19034D,2023-03-29 10:59:28,885344,3.12369798,0.6641788,5.8152,114.4569,60.2489,349.4653,0,999,3573,0.012077,0.0005798,0,3874492,0 ARIANE 5 DEB (SYLDA),1 44336U 19034D   23088.45797321  .00057980  00000-0  12077-1 0  9993,2 44336   5.8152 114.4569 6641788  60.2489 349.4653  3.12369798 35732,2019-034D,44336,19767.685,460.992,26518.828,260.273,0
GENERATED VIA SPACETRACK.ORG API,18 SPCS,44336,ARIANE 5 DEB (SYLDA),DEBRIS,U,19034D,2023-03-29 18:40:20,80416,3.1240399,0.6641525,5.8155,114.2593,60.6393,349.3721,0,999,3574,0.012123,0.00058154,0,3874790,0 ARIANE 5 DEB (SYLDA),1 44336U 19034D   23088.77801019  .00058154  00000-0  12123-1 0  9994,2 44336   5.8155 114.2593 6641525  60.6393 349.3721  3.12403990 35746,2019-034D,44336,19766.243,460.942,26515.907,260.308,0
GENERATED VIA SPACETRACK.ORG API,18 SPCS,44336,ARIANE 5 DEB (SYLDA),DEBRIS,U,19034D,2023-03-30 10:01:52,614048,3.12477424,0.6641082,5.8159,113.8637,61.4175,349.1864,0,999,3574,0.011895,0.00057225,0,3875201,0 ARIANE 5 DEB (SYLDA),1 44336U 19034D   23089.41797007  .00057225  00000-0  11895-1 0  9990,2 44336   5.8159 113.8637 6641082  61.4175 349.1864  3.12477424 35748,2019-034D,44336,19763.146,460.833,26509.878,260.144,0
GENERATED VIA SPACETRACK.ORG API,18 SPCS,44336,ARIANE 5 DEB (SYLDA),DEBRIS,U,19034D,2023-03-31 09:03:46,561536,3.12595297,0.6640097,5.8165,113.2686,62.591,348.9037,0,999,3577,0.013489,0.00064599,0,3876170,0 ARIANE 5 DEB (SYLDA),1 44336U 19034D   23090.37762224  .00064599  00000-0  13489-1 0  9993,2 44336   5.8165 113.2686 6640097  62.5910 348.9037  3.12595297 35778,2019-034D,44336,19758.177,460.66,26499.664,260.421,0
GENERATED VIA SPACETRACK.ORG API,18 SPCS,44336,ARIANE 5 DEB (SYLDA),DEBRIS,U,19034D,2023-04-01 08:05:08,705184,3.12710899,0.6639172,5.8174,112.6721,63.7654,348.619,0,999,3580,0.012469,0.00059491,0,3877029,0 ARIANE 5 DEB (SYLDA),1 44336U 19034D   23091.33690631  .00059491  00000-0  12469-1 0  9994,2 44336   5.8174 112.6721 6639172  63.7654 348.6190  3.12710899 35809,2019-034D,44336,19753.308,460.489,26489.733,260.612,0
GENERATED VIA SPACETRACK.ORG API,18 SPCS,44336,ARIANE 5 DEB (SYLDA),DEBRIS,U,19034D,2023-04-01 08:05:08,705184,3.12710899,0.6639172,5.8174,112.6721,63.7654,348.619,0,999,3582,0.012469,0.00059491,0,3877270,0 ARIANE 5 DEB (SYLDA),1 44336U 19034D   23091.33690631  .00059491  00000-0  12469-1 0  9994,2 44336   5.8174 112.6721 6639172  63.7654 348.6190  3.12710899 35821,2019-034D,44336,19753.308,460.489,26489.733,260.612,0
GENERATED VIA SPACETRACK.ORG API,18 SPCS,44336,ARIANE 5 DEB (SYLDA),DEBRIS,U,19034D,2023-04-01 15:45:29,474496,3.12745719,0.6638877,5.8177,112.4732,64.1573,348.5234,0,999,3581,0.011813,0.00056255,0,3877328,0 ARIANE 5 DEB (SYLDA),1 44336U 19034D   23091.65659114  .00056255  00000-0  11813-1 0  9997,2 44336   5.8177 112.4732 6638877  64.1573 348.5234  3.12745719 35816,2019-034D,44336,19751.842,460.438,26486.711,260.702,0
GENERATED VIA SPACETRACK.ORG API,18 SPCS,44336,ARIANE 5 DEB (SYLDA),DEBRIS,U,19034D,2023-04-01 15:45:29,474496,3.12745719,0.6638877,5.8177,112.4732,64.1573,348.5234,0,999,3583,0.011813,0.00056255,0,3877516,0 ARIANE 5 DEB (SYLDA),1 44336U 19034D   23091.65659114  .00056255  00000-0  11813-1 0  9997,2 44336   5.8177 112.4732 6638877  64.1573 348.5234  3.12745719 35838,2019-034D,44336,19751.842,460.438,26486.711,260.702,0
GENERATED VIA SPACETRACK.ORG API,18 SPCS,44336,ARIANE 5 DEB (SYLDA),DEBRIS,U,19034D,2023-04-02 07:06:00,673632,3.1282809,0.6638287,5.8176,112.0738,64.9416,348.3306,0,999,3583,0.014634,0.00069825,0,3877921,0 ARIANE 5 DEB (SYLDA),1 44336U 19034D   23092.29584113  .00069825  00000-0  14634-1 0  9995,2 44336   5.8176 112.0738 6638287  64.9416 348.3306  3.12828090 35830,2019-034D,44336,19748.374,460.317,26479.777,260.702,0
GENERATED VIA SPACETRACK.ORG API,18 SPCS,44336,ARIANE 5 DEB (SYLDA),DEBRIS,U,19034D,2023-04-02 07:06:00,673632,3.1282809,0.6638287,5.8176,112.0738,64.9416,348.3306,0,999,3585,0.014634,0.00069825,0,3878126,0 ARIANE 5 DEB (SYLDA),1 44336U 19034D   23092.29584113  .00069825  00000-0  14634-1 0  9995,2 44336   5.8176 112.0738 6638287  64.9416 348.3306  3.12828090 35852,2019-034D,44336,19748.374,460.317,26479.777,260.702,0
GENERATED VIA SPACETRACK.ORG API,18 SPCS,44336,ARIANE 5 DEB (SYLDA),DEBRIS,U,19034D,2023-04-02 14:46:11,100000,3.12863293,0.6638003,5.8178,111.8747,65.3338,348.2336,0,999,3584,0.013484,0.00064253,0,3878239,0 ARIANE 5 DEB (SYLDA),1 44336U 19034D   23092.61540625  .00064253  00000-0  13484-1 0  9993,2 44336   5.8178 111.8747 6638003  65.3338 348.2336  3.12863293 35840,2019-034D,44336,19746.893,460.265,26476.751,260.764,0
GENERATED VIA SPACETRACK.ORG API,18 SPCS,44336,ARIANE 5 DEB (SYLDA),DEBRIS,U,19034D,2023-04-02 14:46:11,100000,3.12863293,0.6638003,5.8178,111.8747,65.3338,348.2336,0,999,3586,0.013484,0.00064253,0,3878419,0 ARIANE 5 DEB (SYLDA),1 44336U 19034D   23092.61540625  .00064253  00000-0  13484-1 0  9993,2 44336   5.8178 111.8747 6638003  65.3338 348.2336  3.12863293 35862,2019-034D,44336,19746.893,460.265,26476.751,260.764,0
GENERATED VIA SPACETRACK.ORG API,18 SPCS,44336,ARIANE 5 DEB (SYLDA),DEBRIS,U,19034D,2023-04-02 22:26:18,47040,3.12899367,0.6637667,5.8181,111.677,65.7243,348.1361,0,999,3585,0.011445,0.00054345,0,3878502,0 ARIANE 5 DEB (SYLDA),1 44336U 19034D   23092.93493110  .00054345  00000-0  11445-1 0  9990,2 44336   5.8181 111.6770 6637667  65.7243 348.1361  3.12899367 35851,2019-034D,44336,19745.375,460.212,26473.562,260.918,0
